[{"OBJECT_NAME":"ONEWEB-0463","OBJECT_ID":"2022-012AE","EPOCH":"2026-06-18T01:06:00.107712","MEAN_MOTION":13.17649066,"ECCENTRICITY":0.0001977,"INCLINATION":87.9131,"RA_OF_ASC_NODE":5.7087,"ARG_OF_PERICENTER":90.9523,"MEAN_ANOMALY":269.1836,"EPHEMERIS_TYPE":0,"CLASSIFICATION_TYPE":"U","NORAD_CAT_ID":51650,"ELEMENT_SET_NO":999,"REV_AT_EPOCH":21378,"BSTAR":-6.4174e-05,"MEAN_MOTION_DOT":-1.2e-07,"MEAN_MOTION_DDOT":0.0},{"OBJECT_NAME":"ONEWEB-0464","OBJECT_ID":"2022-012AF","EPOCH":"2026-06-18T02:27:01.159200","MEAN_MOTION":13.10276606,"ECCENTRICITY":0.0001626,"INCLINATION":87.8819,"RA_OF_ASC_NODE":36.099,"ARG_OF_PERICENTER":81.5319,"MEAN_ANOMALY":278.5993,"EPHEMERIS_TYPE":0,"CLASSIFICATION_TYPE":"U","NORAD_CAT_ID":51651,"ELEMENT_SET_NO":999,"REV_AT_EPOCH":20944,"BSTAR":-0.022581000000000004,"MEAN_MOTION_DOT":-7.852e-05,"MEAN_MOTION_DDOT":0.0},{"OBJECT_NAME":"ONEWEB-0468","OBJECT_ID":"2022-012AG","EPOCH":"2026-06-18T02:36:05.554368","MEAN_MOTION":13.10459098,"ECCENTRICITY":0.0001462,"INCLINATION":87.8855,"RA_OF_ASC_NODE":36.0931,"ARG_OF_PERICENTER":74.0553,"MEAN_ANOMALY":286.0736,"EPHEMERIS_TYPE":0,"CLASSIFICATION_TYPE":"U","NORAD_CAT_ID":51652,"ELEMENT_SET_NO":999,"REV_AT_EPOCH":20942,"BSTAR":0.011219,"MEAN_MOTION_DOT":3.936e-05,"MEAN_MOTION_DDOT":0.0},{"OBJECT_NAME":"ONEWEB-0473","OBJECT_ID":"2022-012AH","EPOCH":"2026-06-18T02:14:59.813376","MEAN_MOTION":13.10304213,"ECCENTRICITY":0.0001798,"INCLINATION":87.8825,"RA_OF_ASC_NODE":36.0965,"ARG_OF_PERICENTER":77.2392,"MEAN_ANOMALY":282.8937,"EPHEMERIS_TYPE":0,"CLASSIFICATION_TYPE":"U","NORAD_CAT_ID":51653,"ELEMENT_SET_NO":999,"REV_AT_EPOCH":20942,"BSTAR":-0.016,"MEAN_MOTION_DOT":-5.564e-05,"MEAN_MOTION_DDOT":0.0},{"OBJECT_NAME":"ONEWEB-0474","OBJECT_ID":"2022-012AJ","EPOCH":"2026-06-18T02:03:00.355392","MEAN_MOTION":13.10321118,"ECCENTRICITY":0.0001692,"INCLINATION":87.8847,"RA_OF_ASC_NODE":36.0824,"ARG_OF_PERICENTER":81.251,"MEAN_ANOMALY":278.8809,"EPHEMERIS_TYPE":0,"CLASSIFICATION_TYPE":"U","NORAD_CAT_ID":51654,"ELEMENT_SET_NO":999,"REV_AT_EPOCH":20941,"BSTAR":-0.012011,"MEAN_MOTION_DOT":-4.175e-05,"MEAN_MOTION_DDOT":0.0},{"OBJECT_NAME":"ONEWEB-0475","OBJECT_ID":"2022-012AK","EPOCH":"2026-06-18T01:23:00.534048","MEAN_MOTION":13.17648702,"ECCENTRICITY":0.000146,"INCLINATION":87.9132,"RA_OF_ASC_NODE":5.6993,"ARG_OF_PERICENTER":69.2278,"MEAN_ANOMALY":290.901,"EPHEMERIS_TYPE":0,"CLASSIFICATION_TYPE":"U","NORAD_CAT_ID":51655,"ELEMENT_SET_NO":999,"REV_AT_EPOCH":21380,"BSTAR":9.2101e-05,"MEAN_MOTION_DOT":4.9e-07,"MEAN_MOTION_DDOT":0.0},{"OBJECT_NAME":"ONEWEB-0490","OBJECT_ID":"2022-138A","EPOCH":"2026-06-17T21:25:33.906720","MEAN_MOTION":13.19724736,"ECCENTRICITY":0.000171,"INCLINATION":87.9178,"RA_OF_ASC_NODE":304.8262,"ARG_OF_PERICENTER":102.0872,"MEAN_ANOMALY":258.0452,"EPHEMERIS_TYPE":0,"CLASSIFICATION_TYPE":"U","NORAD_CAT_ID":54113,"ELEMENT_SET_NO":999,"REV_AT_EPOCH":17692,"BSTAR":3.4399e-05,"MEAN_MOTION_DOT":2.7e-07,"MEAN_MOTION_DDOT":0.0},{"OBJECT_NAME":"ONEWEB-0492","OBJECT_ID":"2022-138B","EPOCH":"2026-06-17T22:01:57.779904","MEAN_MOTION":13.19726008,"ECCENTRICITY":0.0001842,"INCLINATION":87.917,"RA_OF_ASC_NODE":304.8224,"ARG_OF_PERICENTER":107.2637,"MEAN_ANOMALY":252.8697,"EPHEMERIS_TYPE":0,"CLASSIFICATION_TYPE":"U","NORAD_CAT_ID":54114,"ELEMENT_SET_NO":999,"REV_AT_EPOCH":17693,"BSTAR":0.00010781,"MEAN_MOTION_DOT":5.6e-07,"MEAN_MOTION_DDOT":0.0},{"OBJECT_NAME":"ONEWEB-0495","OBJECT_ID":"2022-138C","EPOCH":"2026-06-17T21:30:06.797664","MEAN_MOTION":13.19724904,"ECCENTRICITY":0.0001296,"INCLINATION":87.9171,"RA_OF_ASC_NODE":304.8291,"ARG_OF_PERICENTER":112.1099,"MEAN_ANOMALY":248.0172,"EPHEMERIS_TYPE":0,"CLASSIFICATION_TYPE":"U","NORAD_CAT_ID":54115,"ELEMENT_SET_NO":999,"REV_AT_EPOCH":17691,"BSTAR":7.385e-05,"MEAN_MOTION_DOT":4.3e-07,"MEAN_MOTION_DDOT":0.0},{"OBJECT_NAME":"ONEWEB-0497","OBJECT_ID":"2022-138D","EPOCH":"2026-06-17T21:48:18.623232","MEAN_MOTION":13.19724935,"ECCENTRICITY":0.0001791,"INCLINATION":87.9178,"RA_OF_ASC_NODE":304.8187,"ARG_OF_PERICENTER":99.655,"MEAN_ANOMALY":260.4785,"EPHEMERIS_TYPE":0,"CLASSIFICATION_TYPE":"U","NORAD_CAT_ID":54116,"ELEMENT_SET_NO":999,"REV_AT_EPOCH":17690,"BSTAR":-1.5026999999999999e-05,"MEAN_MOTION_DOT":7e-08,"MEAN_MOTION_DDOT":0.0},{"OBJECT_NAME":"ONEWEB-0499","OBJECT_ID":"2022-138E","EPOCH":"2026-06-17T21:24:25.457184","MEAN_MOTION":13.197265,"ECCENTRICITY":0.0001599,"INCLINATION":87.917,"RA_OF_ASC_NODE":304.8314,"ARG_OF_PERICENTER":98.3973,"MEAN_ANOMALY":261.7341,"EPHEMERIS_TYPE":0,"CLASSIFICATION_TYPE":"U","NORAD_CAT_ID":54117,"ELEMENT_SET_NO":999,"REV_AT_EPOCH":17691,"BSTAR":8.575000000000001e-05,"MEAN_MOTION_DOT":4.7e-07,"MEAN_MOTION_DDOT":0.0},{"OBJECT_NAME":"ONEWEB-0500","OBJECT_ID":"2022-138F","EPOCH":"2026-06-17T21:27:50.184576","MEAN_MOTION":13.19723983,"ECCENTRICITY":0.0001953,"INCLINATION":87.9178,"RA_OF_ASC_NODE":304.8252,"ARG_OF_PERICENTER":100.6559,"MEAN_ANOMALY":259.4794,"EPHEMERIS_TYPE":0,"CLASSIFICATION_TYPE":"U","NORAD_CAT_ID":54118,"ELEMENT_SET_NO":999,"REV_AT_EPOCH":17692,"BSTAR":-7.858000000000001e-05,"MEAN_MOTION_DOT":-1.9e-07,"MEAN_MOTION_DDOT":0.0},{"OBJECT_NAME":"ONEWEB-0501","OBJECT_ID":"2022-138G","EPOCH":"2026-06-17T22:11:03.071040","MEAN_MOTION":13.19723926,"ECCENTRICITY":0.0001445,"INCLINATION":87.9178,"RA_OF_ASC_NODE":304.8186,"ARG_OF_PERICENTER":103.8364,"MEAN_ANOMALY":256.293,"EPHEMERIS_TYPE":0,"CLASSIFICATION_TYPE":"U","NORAD_CAT_ID":54119,"ELEMENT_SET_NO":999,"REV_AT_EPOCH":17690,"BSTAR":8.000100000000001e-05,"MEAN_MOTION_DOT":4.5e-07,"MEAN_MOTION_DDOT":0.0},{"OBJECT_NAME":"ONEWEB-0502","OBJECT_ID":"2022-138H","EPOCH":"2026-06-17T21:50:34.455264","MEAN_MOTION":13.19724115,"ECCENTRICITY":0.0001614,"INCLINATION":87.9178,"RA_OF_ASC_NODE":304.8103,"ARG_OF_PERICENTER":95.4706,"MEAN_ANOMALY":264.6611,"EPHEMERIS_TYPE":0,"CLASSIFICATION_TYPE":"U","NORAD_CAT_ID":54120,"ELEMENT_SET_NO":999,"REV_AT_EPOCH":17692,"BSTAR":-0.00013918,"MEAN_MOTION_DOT":-4.3e-07,"MEAN_MOTION_DDOT":0.0},{"OBJECT_NAME":"ONEWEB-0503","OBJECT_ID":"2022-138J","EPOCH":"2026-06-17T21:34:39.763776","MEAN_MOTION":13.19724665,"ECCENTRICITY":0.0001905,"INCLINATION":87.918,"RA_OF_ASC_NODE":304.8186,"ARG_OF_PERICENTER":90.997,"MEAN_ANOMALY":269.1381,"EPHEMERIS_TYPE":0,"CLASSIFICATION_TYPE":"U","NORAD_CAT_ID":54121,"ELEMENT_SET_NO":999,"REV_AT_EPOCH":17691,"BSTAR":-8.0936e-05,"MEAN_MOTION_DOT":-1.9e-07,"MEAN_MOTION_DDOT":0.0},{"OBJECT_NAME":"ONEWEB-0504","OBJECT_ID":"2022-138K","EPOCH":"2026-06-17T21:16:28.311456","MEAN_MOTION":13.19725042,"ECCENTRICITY":0.0001633,"INCLINATION":87.9179,"RA_OF_ASC_NODE":304.8261,"ARG_OF_PERICENTER":96.061,"MEAN_ANOMALY":264.0709,"EPHEMERIS_TYPE":0,"CLASSIFICATION_TYPE":"U","NORAD_CAT_ID":54122,"ELEMENT_SET_NO":999,"REV_AT_EPOCH":17692,"BSTAR":7.024100000000001e-05,"MEAN_MOTION_DOT":4.1e-07,"MEAN_MOTION_DDOT":0.0}]