ONEWEB-0463             
1 51650U 22012AE  26169.04583458 -.00000012  00000+0 -64174-4 0  9995
2 51650  87.9131   5.7087 0001977  90.9523 269.1836 13.17649066213786
ONEWEB-0464             
1 51651U 22012AF  26169.10209675 -.00007852  00000+0 -22581-1 0  9991
2 51651  87.8819  36.0990 0001626  81.5319 278.5993 13.10276606209444
ONEWEB-0468             
1 51652U 22012AG  26169.10839762  .00003936  00000+0  11219-1 0  9991
2 51652  87.8855  36.0931 0001462  74.0553 286.0736 13.10459098209420
ONEWEB-0473             
1 51653U 22012AH  26169.09374784 -.00005564  00000+0 -16000-1 0  9992
2 51653  87.8825  36.0965 0001798  77.2392 282.8937 13.10304213209428
ONEWEB-0474             
1 51654U 22012AJ  26169.08542078 -.00004175  00000+0 -12011-1 0  9990
2 51654  87.8847  36.0824 0001692  81.2510 278.8809 13.10321118209412
ONEWEB-0475             
1 51655U 22012AK  26169.05764507  .00000049  00000+0  92101-4 0  9996
2 51655  87.9132   5.6993 0001460  69.2278 290.9010 13.17648702213805
ONEWEB-0490             
1 54113U 22138A   26168.89275355  .00000027  00000+0  34399-4 0  9997
2 54113  87.9178 304.8262 0001710 102.0872 258.0452 13.19724736176924
ONEWEB-0492             
1 54114U 22138B   26168.91802986  .00000056  00000+0  10781-3 0  9997
2 54114  87.9170 304.8224 0001842 107.2637 252.8697 13.19726008176935
ONEWEB-0495             
1 54115U 22138C   26168.89591201  .00000043  00000+0  73850-4 0  9993
2 54115  87.9171 304.8291 0001296 112.1099 248.0172 13.19724904176917
ONEWEB-0497             
1 54116U 22138D   26168.90854888  .00000007  00000+0 -15027-4 0  9992
2 54116  87.9178 304.8187 0001791  99.6550 260.4785 13.19724935176901
ONEWEB-0499             
1 54117U 22138E   26168.89196131  .00000047  00000+0  85750-4 0  9994
2 54117  87.9170 304.8314 0001599  98.3973 261.7341 13.19726500176910
ONEWEB-0500             
1 54118U 22138F   26168.89433084 -.00000019  00000+0 -78580-4 0  9990
2 54118  87.9178 304.8252 0001953 100.6559 259.4794 13.19723983176920
ONEWEB-0501             
1 54119U 22138G   26168.92434110  .00000045  00000+0  80001-4 0  9994
2 54119  87.9178 304.8186 0001445 103.8364 256.2930 13.19723926176904
ONEWEB-0502             
1 54120U 22138H   26168.91012101 -.00000043  00000+0 -13918-3 0  9999
2 54120  87.9178 304.8103 0001614  95.4706 264.6611 13.19724115176921
ONEWEB-0503             
1 54121U 22138J   26168.89907134 -.00000019  00000+0 -80936-4 0  9994
2 54121  87.9180 304.8186 0001905  90.9970 269.1381 13.19724665176915
ONEWEB-0504             
1 54122U 22138K   26168.88643879  .00000041  00000+0  70241-4 0  9998
2 54122  87.9179 304.8261 0001633  96.0610 264.0709 13.19725042176923
